{
  "type": "FeatureCollection",
  "features": [
    {
      "type": "Feature",
      "properties": {
        "norad_id": 29486,
        "name": "GPS BIIRM-2 (PRN 31)",
        "group": "gps-ops",
        "lat": 23.510673398047903,
        "lon": -39.623603872299874,
        "alt_km": 20219.39962975786,
        "timestamp": "2025-12-22T16:55:17.721556+00:00",
        "meta_object_name": "GPS BIIRM-2 (PRN 31)",
        "meta_object_id": "2006-042A",
        "meta_epoch": "2025-12-21T12:25:39.335232",
        "meta_mean_motion": 2.00553827,
        "meta_eccentricity": 0.01073004,
        "meta_inclination": 54.6951,
        "meta_ra_of_asc_node": 158.3926,
        "meta_arg_of_pericenter": 52.1628,
        "meta_mean_anomaly": 320.0686,
        "meta_ephemeris_type": 0,
        "meta_classification_type": "U",
        "meta_norad_cat_id": 29486,
        "meta_element_set_no": 999,
        "meta_rev_at_epoch": 14083,
        "meta_bstar": 0,
        "meta_mean_motion_dot": 7.1e-07,
        "meta_mean_motion_ddot": 0,
        "tle_line1": "1 29486U 06042A   25355.51781638  .00000071  00000+0  00000+0 0  9996",
        "tle_line2": "2 29486  54.6951 158.3926 0107300  52.1628 320.0686  2.00553827140833"
      },
      "geometry": {
        "type": "Point",
        "coordinates": [
          -39.623603872299874,
          23.510673398047903
        ]
      }
    },
    {
      "type": "Feature",
      "properties": {
        "norad_id": 29601,
        "name": "GPS BIIRM-3 (PRN 12)",
        "group": "gps-ops",
        "lat": -23.104813919870114,
        "lon": 58.42757098366838,
        "alt_km": 20303.59185274216,
        "timestamp": "2025-12-22T16:55:17.721569+00:00",
        "meta_object_name": "GPS BIIRM-3 (PRN 12)",
        "meta_object_id": "2006-052A",
        "meta_epoch": "2025-12-21T22:05:09.010752",
        "meta_mean_motion": 2.00574213,
        "meta_eccentricity": 0.00880316,
        "meta_inclination": 54.9687,
        "meta_ra_of_asc_node": 221.0338,
        "meta_arg_of_pericenter": 87.5441,
        "meta_mean_anomaly": 273.5576,
        "meta_ephemeris_type": 0,
        "meta_classification_type": "U",
        "meta_norad_cat_id": 29601,
        "meta_element_set_no": 999,
        "meta_rev_at_epoch": 13985,
        "meta_bstar": 0,
        "meta_mean_motion_dot": 7e-07,
        "meta_mean_motion_ddot": 0,
        "tle_line1": "1 29601U 06052A   25355.92024318  .00000070  00000+0  00000+0 0  9995",
        "tle_line2": "2 29601  54.9687 221.0338 0088031  87.5441 273.5576  2.00574213139852"
      },
      "geometry": {
        "type": "Point",
        "coordinates": [
          58.42757098366838,
          -23.104813919870114
        ]
      }
    },
    {
      "type": "Feature",
      "properties": {
        "norad_id": 32260,
        "name": "GPS BIIRM-4 (PRN 15)",
        "group": "gps-ops",
        "lat": -11.61148584718635,
        "lon": 78.76486896826995,
        "alt_km": 20250.11255397168,
        "timestamp": "2025-12-22T16:55:17.721581+00:00",
        "meta_object_name": "GPS BIIRM-4 (PRN 15)",
        "meta_object_id": "2007-047A",
        "meta_epoch": "2025-12-22T05:26:06.407520",
        "meta_mean_motion": 2.00564155,
        "meta_eccentricity": 0.0163987,
        "meta_inclination": 53.9614,
        "meta_ra_of_asc_node": 87.3666,
        "meta_arg_of_pericenter": 85.3577,
        "meta_mean_anomaly": 276.5274,
        "meta_ephemeris_type": 0,
        "meta_classification_type": "U",
        "meta_norad_cat_id": 32260,
        "meta_element_set_no": 999,
        "meta_rev_at_epoch": 13326,
        "meta_bstar": 0,
        "meta_mean_motion_dot": -1.3e-07,
        "meta_mean_motion_ddot": 0,
        "tle_line1": "1 32260U 07047A   25356.22646305 -.00000013  00000+0  00000+0 0  9993",
        "tle_line2": "2 32260  53.9614  87.3666 0163987  85.3577 276.5274  2.00564155133264"
      },
      "geometry": {
        "type": "Point",
        "coordinates": [
          78.76486896826995,
          -11.61148584718635
        ]
      }
    },
    {
      "type": "Feature",
      "properties": {
        "norad_id": 32384,
        "name": "GPS BIIRM-5 (PRN 29)",
        "group": "gps-ops",
        "lat": 47.10314544113925,
        "lon": 52.80797665414566,
        "alt_km": 20115.001241929665,
        "timestamp": "2025-12-22T16:55:17.721593+00:00",
        "meta_object_name": "GPS BIIRM-5 (PRN 29)",
        "meta_object_id": "2007-062A",
        "meta_epoch": "2025-12-19T04:08:10.010976",
        "meta_mean_motion": 2.00577702,
        "meta_eccentricity": 0.00322663,
        "meta_inclination": 55.1765,
        "meta_ra_of_asc_node": 281.388,
        "meta_arg_of_pericenter": 162.2119,
        "meta_mean_anomaly": 283.9132,
        "meta_ephemeris_type": 0,
        "meta_classification_type": "U",
        "meta_norad_cat_id": 32384,
        "meta_element_set_no": 999,
        "meta_rev_at_epoch": 13190,
        "meta_bstar": 0,
        "meta_mean_motion_dot": -3.8e-07,
        "meta_mean_motion_ddot": 0,
        "tle_line1": "1 32384U 07062A   25353.17233809 -.00000038  00000+0  00000+0 0  9996",
        "tle_line2": "2 32384  55.1765 281.3880 0032266 162.2119 283.9132  2.00577702131904"
      },
      "geometry": {
        "type": "Point",
        "coordinates": [
          52.80797665414566,
          47.10314544113925
        ]
      }
    },
    {
      "type": "Feature",
      "properties": {
        "norad_id": 32711,
        "name": "GPS BIIRM-6 (PRN 07)",
        "group": "gps-ops",
        "lat": 33.01450468948773,
        "lon": -175.3739782087758,
        "alt_km": 20671.692968499694,
        "timestamp": "2025-12-22T16:55:17.721604+00:00",
        "meta_object_name": "GPS BIIRM-6 (PRN 07)",
        "meta_object_id": "2008-012A",
        "meta_epoch": "2025-12-21T15:33:12.168000",
        "meta_mean_motion": 2.00566008,
        "meta_eccentricity": 0.02028329,
        "meta_inclination": 54.478,
        "meta_ra_of_asc_node": 157.0174,
        "meta_arg_of_pericenter": 245.0507,
        "meta_mean_anomaly": 112.8153,
        "meta_ephemeris_type": 0,
        "meta_classification_type": "U",
        "meta_norad_cat_id": 32711,
        "meta_element_set_no": 999,
        "meta_rev_at_epoch": 13019,
        "meta_bstar": 0,
        "meta_mean_motion_dot": 7e-07,
        "meta_mean_motion_ddot": 0,
        "tle_line1": "1 32711U 08012A   25355.64805750  .00000070  00000+0  00000+0 0  9995",
        "tle_line2": "2 32711  54.4780 157.0174 0202832 245.0507 112.8153  2.00566008130191"
      },
      "geometry": {
        "type": "Point",
        "coordinates": [
          -175.3739782087758,
          33.01450468948773
        ]
      }
    },
    {
      "type": "Feature",
      "properties": {
        "norad_id": 35752,
        "name": "GPS BIIRM-8 (PRN 05)",
        "group": "gps-ops",
        "lat": 46.3812984848783,
        "lon": 79.26924906684837,
        "alt_km": 20048.15507817736,
        "timestamp": "2025-12-22T16:55:17.721615+00:00",
        "meta_object_name": "GPS BIIRM-8 (PRN 05)",
        "meta_object_id": "2009-043A",
        "meta_epoch": "2025-12-20T02:09:52.509312",
        "meta_mean_motion": 2.00565329,
        "meta_eccentricity": 0.00516467,
        "meta_inclination": 56.096,
        "meta_ra_of_asc_node": 34.4932,
        "meta_arg_of_pericenter": 81.7821,
        "meta_mean_anomaly": 251.1308,
        "meta_ephemeris_type": 0,
        "meta_classification_type": "U",
        "meta_norad_cat_id": 35752,
        "meta_element_set_no": 999,
        "meta_rev_at_epoch": 11976,
        "meta_bstar": 0,
        "meta_mean_motion_dot": -6.1e-07,
        "meta_mean_motion_ddot": 0,
        "tle_line1": "1 35752U 09043A   25354.09019108 -.00000061  00000+0  00000+0 0  9991",
        "tle_line2": "2 35752  56.0960  34.4932 0051646  81.7821 251.1308  2.00565329119760"
      },
      "geometry": {
        "type": "Point",
        "coordinates": [
          79.26924906684837,
          46.3812984848783
        ]
      }
    },
    {
      "type": "Feature",
      "properties": {
        "norad_id": 36585,
        "name": "GPS BIIF-1  (PRN 25)",
        "group": "gps-ops",
        "lat": -0.25804859391839147,
        "lon": 35.87140588135986,
        "alt_km": 20322.590497170386,
        "timestamp": "2025-12-22T16:55:17.721627+00:00",
        "meta_object_name": "GPS BIIF-1  (PRN 25)",
        "meta_object_id": "2010-022A",
        "meta_epoch": "2025-12-22T05:20:22.074144",
        "meta_mean_motion": 2.00553706,
        "meta_eccentricity": 0.01264918,
        "meta_inclination": 54.2987,
        "meta_ra_of_asc_node": 215.6915,
        "meta_arg_of_pericenter": 65.1953,
        "meta_mean_anomaly": 125.3997,
        "meta_ephemeris_type": 0,
        "meta_classification_type": "U",
        "meta_norad_cat_id": 36585,
        "meta_element_set_no": 999,
        "meta_rev_at_epoch": 11404,
        "meta_bstar": 0,
        "meta_mean_motion_dot": 7.4e-07,
        "meta_mean_motion_ddot": 0,
        "tle_line1": "1 36585U 10022A   25356.22247771  .00000074  00000+0  00000+0 0  9994",
        "tle_line2": "2 36585  54.2987 215.6915 0126491  65.1953 125.3997  2.00553706114049"
      },
      "geometry": {
        "type": "Point",
        "coordinates": [
          35.87140588135986,
          -0.25804859391839147
        ]
      }
    }
  ]
}